{
  "type": "FeatureCollection",
  "features": [
    {
      "type": "Feature",
      "properties": {
        "norad_id": 66610,
        "name": "STARLINK-35680",
        "group": "last-30-days",
        "lat": 37.55673447829468,
        "lon": -62.990885091588396,
        "alt_km": 409.41763923443887,
        "timestamp": "2025-12-16T03:53:25.816060+00:00",
        "meta_object_name": "STARLINK-35680",
        "meta_object_id": "2025-270Y",
        "meta_epoch": "2025-12-15T05:44:53.958624",
        "meta_mean_motion": 15.5060185,
        "meta_eccentricity": 0.00014067,
        "meta_inclination": 42.9987,
        "meta_ra_of_asc_node": 178.0139,
        "meta_arg_of_pericenter": 277.0814,
        "meta_mean_anomaly": 82.9886,
        "meta_ephemeris_type": 0,
        "meta_classification_type": "U",
        "meta_norad_cat_id": 66610,
        "meta_element_set_no": 999,
        "meta_rev_at_epoch": 484,
        "meta_bstar": 0.001503026,
        "meta_mean_motion_dot": 0.00088914,
        "meta_mean_motion_ddot": 0,
        "tle_line1": "1 66610U 25270Y   25349.23951341  .00088914  00000+0  15030-2 0  9996",
        "tle_line2": "2 66610  42.9987 178.0139 0001406 277.0814  82.9886 15.50601850  4847"
      },
      "geometry": {
        "type": "Point",
        "coordinates": [
          -62.990885091588396,
          37.55673447829468
        ]
      }
    },
    {
      "type": "Feature",
      "properties": {
        "norad_id": 66611,
        "name": "STARLINK-35583",
        "group": "last-30-days",
        "lat": 36.794449095396175,
        "lon": -60.7761053648341,
        "alt_km": 409.6130381984476,
        "timestamp": "2025-12-16T03:53:25.816070+00:00",
        "meta_object_name": "STARLINK-35583",
        "meta_object_id": "2025-270Z",
        "meta_epoch": "2025-12-15T05:44:24.189504",
        "meta_mean_motion": 15.50605937,
        "meta_eccentricity": 0.0001559,
        "meta_inclination": 42.9988,
        "meta_ra_of_asc_node": 178.0114,
        "meta_arg_of_pericenter": 272.091,
        "meta_mean_anomaly": 87.9772,
        "meta_ephemeris_type": 0,
        "meta_classification_type": "U",
        "meta_norad_cat_id": 66611,
        "meta_element_set_no": 999,
        "meta_rev_at_epoch": 484,
        "meta_bstar": 0.0014359272,
        "meta_mean_motion_dot": 0.00084898,
        "meta_mean_motion_ddot": 0,
        "tle_line1": "1 66611U 25270Z   25349.23916886  .00084898  00000+0  14359-2 0  9992",
        "tle_line2": "2 66611  42.9988 178.0114 0001559 272.0910  87.9772 15.50605937  4842"
      },
      "geometry": {
        "type": "Point",
        "coordinates": [
          -60.7761053648341,
          36.794449095396175
        ]
      }
    },
    {
      "type": "Feature",
      "properties": {
        "norad_id": 66612,
        "name": "STARLINK-36039",
        "group": "last-30-days",
        "lat": -0.5855764048011135,
        "lon": 172.26983890496163,
        "alt_km": 443.7682637878497,
        "timestamp": "2025-12-16T03:53:25.816083+00:00",
        "meta_object_name": "STARLINK-36039",
        "meta_object_id": "2025-270AA",
        "meta_epoch": "2025-12-15T08:00:01.999872",
        "meta_mean_motion": 15.4068717,
        "meta_eccentricity": 0.00022974,
        "meta_inclination": 42.9999,
        "meta_ra_of_asc_node": 177.6752,
        "meta_arg_of_pericenter": 265.6348,
        "meta_mean_anomaly": 171.4199,
        "meta_ephemeris_type": 0,
        "meta_classification_type": "U",
        "meta_norad_cat_id": 66612,
        "meta_element_set_no": 999,
        "meta_rev_at_epoch": 481,
        "meta_bstar": 0.00053221841,
        "meta_mean_motion_dot": 0.00021984,
        "meta_mean_motion_ddot": 0,
        "tle_line1": "1 66612U 25270AA  25349.33335648  .00021984  00000+0  53222-3 0  9995",
        "tle_line2": "2 66612  42.9999 177.6752 0002297 265.6348 171.4199 15.40687170  4818"
      },
      "geometry": {
        "type": "Point",
        "coordinates": [
          172.26983890496163,
          -0.5855764048011135
        ]
      }
    },
    {
      "type": "Feature",
      "properties": {
        "norad_id": 66613,
        "name": "STARLINK-36037",
        "group": "last-30-days",
        "lat": 16.112095517303604,
        "lon": -169.10301998418944,
        "alt_km": 441.87155170868937,
        "timestamp": "2025-12-16T03:53:25.816096+00:00",
        "meta_object_name": "STARLINK-36037",
        "meta_object_id": "2025-270AB",
        "meta_epoch": "2025-12-15T08:00:01.999872",
        "meta_mean_motion": 15.40688506,
        "meta_eccentricity": 0.0001701,
        "meta_inclination": 42.9997,
        "meta_ra_of_asc_node": 177.6152,
        "meta_arg_of_pericenter": 265.3697,
        "meta_mean_anomaly": 196.559,
        "meta_ephemeris_type": 0,
        "meta_classification_type": "U",
        "meta_norad_cat_id": 66613,
        "meta_element_set_no": 999,
        "meta_rev_at_epoch": 481,
        "meta_bstar": 0.00053849317,
        "meta_mean_motion_dot": 0.00022248,
        "meta_mean_motion_ddot": 0,
        "tle_line1": "1 66613U 25270AB  25349.33335648  .00022248  00000+0  53849-3 0  9995",
        "tle_line2": "2 66613  42.9997 177.6152 0001701 265.3697 196.5590 15.40688506  4811"
      },
      "geometry": {
        "type": "Point",
        "coordinates": [
          -169.10301998418944,
          16.112095517303604
        ]
      }
    },
    {
      "type": "Feature",
      "properties": {
        "norad_id": 66614,
        "name": "STARLINK-36040",
        "group": "last-30-days",
        "lat": 33.36611969966794,
        "lon": -52.37844980286566,
        "alt_km": 409.9243468848399,
        "timestamp": "2025-12-16T03:53:25.816106+00:00",
        "meta_object_name": "STARLINK-36040",
        "meta_object_id": "2025-270AC",
        "meta_epoch": "2025-12-15T05:42:25.748064",
        "meta_mean_motion": 15.5060955,
        "meta_eccentricity": 0.00013061,
        "meta_inclination": 42.9988,
        "meta_ra_of_asc_node": 177.9992,
        "meta_arg_of_pericenter": 270.9985,
        "meta_mean_anomaly": 89.0725,
        "meta_ephemeris_type": 0,
        "meta_classification_type": "U",
        "meta_norad_cat_id": 66614,
        "meta_element_set_no": 999,
        "meta_rev_at_epoch": 457,
        "meta_bstar": 0.0014639846,
        "meta_mean_motion_dot": 0.00086593,
        "meta_mean_motion_ddot": 0,
        "tle_line1": "1 66614U 25270AC  25349.23779801  .00086593  00000+0  14640-2 0  9996",
        "tle_line2": "2 66614  42.9988 177.9992 0001306 270.9985  89.0725 15.50609550  4572"
      },
      "geometry": {
        "type": "Point",
        "coordinates": [
          -52.37844980286566,
          33.36611969966794
        ]
      }
    },
    {
      "type": "Feature",
      "properties": {
        "norad_id": 66615,
        "name": "STARLINK-35988",
        "group": "last-30-days",
        "lat": 36.532073195626246,
        "lon": -134.5942521009746,
        "alt_km": 441.32400788666746,
        "timestamp": "2025-12-16T03:53:25.816117+00:00",
        "meta_object_name": "STARLINK-35988",
        "meta_object_id": "2025-270AD",
        "meta_epoch": "2025-12-15T08:00:01.999872",
        "meta_mean_motion": 15.41033185,
        "meta_eccentricity": 0.00019364,
        "meta_inclination": 42.9996,
        "meta_ra_of_asc_node": 177.525,
        "meta_arg_of_pericenter": 258.66,
        "meta_mean_anomaly": 240.4603,
        "meta_ephemeris_type": 0,
        "meta_classification_type": "U",
        "meta_norad_cat_id": 66615,
        "meta_element_set_no": 999,
        "meta_rev_at_epoch": 465,
        "meta_bstar": -0.013389733,
        "meta_mean_motion_dot": -0.00528435,
        "meta_mean_motion_ddot": 0,
        "tle_line1": "1 66615U 25270AD  25349.33335648 -.00528435  00000+0 -13390-1 0  9993",
        "tle_line2": "2 66615  42.9996 177.5250 0001936 258.6600 240.4603 15.41033185  4653"
      },
      "geometry": {
        "type": "Point",
        "coordinates": [
          -134.5942521009746,
          36.532073195626246
        ]
      }
    },
    {
      "type": "Feature",
      "properties": {
        "norad_id": 66616,
        "name": "STARLINK-35391",
        "group": "last-30-days",
        "lat": 32.429678935385496,
        "lon": -50.401484081091674,
        "alt_km": 410.05421742013095,
        "timestamp": "2025-12-16T03:53:25.816127+00:00",
        "meta_object_name": "STARLINK-35391",
        "meta_object_id": "2025-270AE",
        "meta_epoch": "2025-12-15T05:41:56.073120",
        "meta_mean_motion": 15.5060651,
        "meta_eccentricity": 0.00014,
        "meta_inclination": 42.9988,
        "meta_ra_of_asc_node": 177.997,
        "meta_arg_of_pericenter": 263.4614,
        "meta_mean_anomaly": 96.6087,
        "meta_ephemeris_type": 0,
        "meta_classification_type": "U",
        "meta_norad_cat_id": 66616,
        "meta_element_set_no": 999,
        "meta_rev_at_epoch": 484,
        "meta_bstar": 0.0014673875,
        "meta_mean_motion_dot": 0.00086788,
        "meta_mean_motion_ddot": 0,
        "tle_line1": "1 66616U 25270AE  25349.23745455  .00086788  00000+0  14674-2 0  9999",
        "tle_line2": "2 66616  42.9988 177.9970 0001400 263.4614  96.6087 15.50606510  4849"
      },
      "geometry": {
        "type": "Point",
        "coordinates": [
          -50.401484081091674,
          32.429678935385496
        ]
      }
    }
  ]
}